[{"OBJECT_NAME":"STARLINK-32334","OBJECT_ID":"2024-213R","EPOCH":"2026-03-09T12:35:20.466816","MEAN_MOTION":15.30212185,"ECCENTRICITY":0.00015614,"INCLINATION":53.161,"RA_OF_ASC_NODE":168.6006,"ARG_OF_PERICENTER":157.5927,"MEAN_ANOMALY":202.5143,"EPHEMERIS_TYPE":0,"CLASSIFICATION_TYPE":"U","NORAD_CAT_ID":62023,"ELEMENT_SET_NO":999,"REV_AT_EPOCH":7313,"BSTAR":0.00089148182,"MEAN_MOTION_DOT":0.00026147,"MEAN_MOTION_DDOT":0},{"OBJECT_NAME":"HERMES-3","OBJECT_ID":"2025-052BR","EPOCH":"2026-03-09T22:30:01.073952","MEAN_MOTION":15.30039786,"ECCENTRICITY":0.00079928,"INCLINATION":97.3987,"RA_OF_ASC_NODE":324.6131,"ARG_OF_PERICENTER":112.9583,"MEAN_ANOMALY":247.2502,"EPHEMERIS_TYPE":0,"CLASSIFICATION_TYPE":"U","NORAD_CAT_ID":63835,"ELEMENT_SET_NO":999,"REV_AT_EPOCH":5486,"BSTAR":0.0006995793,"MEAN_MOTION_DOT":0.00020316,"MEAN_MOTION_DDOT":0}]
